[{"OBJECT_NAME":"STARLINK-33591","OBJECT_ID":"2025-015V","EPOCH":"2026-03-09T23:20:48.728544","MEAN_MOTION":15.30193937,"ECCENTRICITY":9.87e-5,"INCLINATION":53.1599,"RA_OF_ASC_NODE":321.1982,"ARG_OF_PERICENTER":95.3089,"MEAN_ANOMALY":264.8025,"EPHEMERIS_TYPE":0,"CLASSIFICATION_TYPE":"U","NORAD_CAT_ID":62777,"ELEMENT_SET_NO":999,"REV_AT_EPOCH":6452,"BSTAR":0.00048767458,"MEAN_MOTION_DOT":0.00014109,"MEAN_MOTION_DDOT":0},{"OBJECT_NAME":"OBJECT L","OBJECT_ID":"2024-024L","EPOCH":"2026-03-09T22:36:05.522976","MEAN_MOTION":15.29373491,"ECCENTRICITY":0.00073185,"INCLINATION":97.3169,"RA_OF_ASC_NODE":137.7038,"ARG_OF_PERICENTER":167.6369,"MEAN_ANOMALY":192.5052,"EPHEMERIS_TYPE":0,"CLASSIFICATION_TYPE":"U","NORAD_CAT_ID":58927,"ELEMENT_SET_NO":999,"REV_AT_EPOCH":9318,"BSTAR":0.00043092344,"MEAN_MOTION_DOT":0.00012217,"MEAN_MOTION_DDOT":0}]
